{
  "type": "FeatureCollection",
  "features": [
    {
      "type": "Feature",
      "properties": {
        "norad_id": 66847,
        "name": "STARLINK-36061",
        "group": "last-30-days",
        "lat": 52.29197699466146,
        "lon": -141.38265161886005,
        "alt_km": 353.4922631994514,
        "timestamp": "2025-12-15T15:53:18.662580+00:00",
        "meta_object_name": "STARLINK-36061",
        "meta_object_id": "2025-280AC",
        "meta_epoch": "2025-12-14T20:00:06.000192",
        "meta_mean_motion": 15.7330144,
        "meta_eccentricity": 0.00031158,
        "meta_inclination": 69.9952,
        "meta_ra_of_asc_node": 192.8371,
        "meta_arg_of_pericenter": 277.3602,
        "meta_mean_anomaly": 132.5874,
        "meta_ephemeris_type": 0,
        "meta_classification_type": "U",
        "meta_norad_cat_id": 66847,
        "meta_element_set_no": 999,
        "meta_rev_at_epoch": 318,
        "meta_bstar": -0.013169559,
        "meta_mean_motion_dot": -0.01623228,
        "meta_mean_motion_ddot": 0,
        "tle_line1": "1 66847U 25280AC  25348.83340278 -.01623228  00000+0 -13170-1 0  9993",
        "tle_line2": "2 66847  69.9952 192.8371 0003115 277.3602 132.5874 15.73301440  3181"
      },
      "geometry": {
        "type": "Point",
        "coordinates": [
          -141.38265161886005,
          52.29197699466146
        ]
      }
    },
    {
      "type": "Feature",
      "properties": {
        "norad_id": 66848,
        "name": "STARLINK-36091",
        "group": "last-30-days",
        "lat": -32.09366874036761,
        "lon": 62.046201637979955,
        "alt_km": 321.19345394126503,
        "timestamp": "2025-12-15T15:53:18.662589+00:00",
        "meta_object_name": "STARLINK-36091",
        "meta_object_id": "2025-281A",
        "meta_epoch": "2025-12-14T20:00:06.000192",
        "meta_mean_motion": 15.85805365,
        "meta_eccentricity": 0.00015369,
        "meta_inclination": 43.0006,
        "meta_ra_of_asc_node": 109.4472,
        "meta_arg_of_pericenter": 279.0579,
        "meta_mean_anomaly": 336.4749,
        "meta_ephemeris_type": 0,
        "meta_classification_type": "U",
        "meta_norad_cat_id": 66848,
        "meta_element_set_no": 999,
        "meta_rev_at_epoch": 173,
        "meta_bstar": -0.0050014719,
        "meta_mean_motion_dot": -0.01112074,
        "meta_mean_motion_ddot": 0,
        "tle_line1": "1 66848U 25281A   25348.83340278 -.01112074  00000+0 -50015-2 0  9997",
        "tle_line2": "2 66848  43.0006 109.4472 0001536 279.0579 336.4749 15.85805365  1731"
      },
      "geometry": {
        "type": "Point",
        "coordinates": [
          62.046201637979955,
          -32.09366874036761
        ]
      }
    },
    {
      "type": "Feature",
      "properties": {
        "norad_id": 66849,
        "name": "STARLINK-36102",
        "group": "last-30-days",
        "lat": -30.881542231140028,
        "lon": 64.41464054706866,
        "alt_km": 321.2580446650518,
        "timestamp": "2025-12-15T15:53:18.662601+00:00",
        "meta_object_name": "STARLINK-36102",
        "meta_object_id": "2025-281B",
        "meta_epoch": "2025-12-14T20:00:06.000192",
        "meta_mean_motion": 15.85806731,
        "meta_eccentricity": 0.00013944,
        "meta_inclination": 43.0008,
        "meta_ra_of_asc_node": 109.4407,
        "meta_arg_of_pericenter": 277.8104,
        "meta_mean_anomaly": 340.0905,
        "meta_ephemeris_type": 0,
        "meta_classification_type": "U",
        "meta_norad_cat_id": 66849,
        "meta_element_set_no": 999,
        "meta_rev_at_epoch": 173,
        "meta_bstar": -0.0050180098,
        "meta_mean_motion_dot": -0.01115291,
        "meta_mean_motion_ddot": 0,
        "tle_line1": "1 66849U 25281B   25348.83340278 -.01115291  00000+0 -50180-2 0  9995",
        "tle_line2": "2 66849  43.0008 109.4407 0001394 277.8104 340.0905 15.85806731  1737"
      },
      "geometry": {
        "type": "Point",
        "coordinates": [
          64.41464054706866,
          -30.881542231140028
        ]
      }
    },
    {
      "type": "Feature",
      "properties": {
        "norad_id": 66850,
        "name": "STARLINK-36105",
        "group": "last-30-days",
        "lat": -29.27367625273964,
        "lon": 67.34956024246803,
        "alt_km": 321.17802802009555,
        "timestamp": "2025-12-15T15:53:18.662612+00:00",
        "meta_object_name": "STARLINK-36105",
        "meta_object_id": "2025-281C",
        "meta_epoch": "2025-12-14T20:00:06.000192",
        "meta_mean_motion": 15.85783131,
        "meta_eccentricity": 0.0001636,
        "meta_inclination": 43.0004,
        "meta_ra_of_asc_node": 109.433,
        "meta_arg_of_pericenter": 273.5725,
        "meta_mean_anomaly": 347.4123,
        "meta_ephemeris_type": 0,
        "meta_classification_type": "U",
        "meta_norad_cat_id": 66850,
        "meta_element_set_no": 999,
        "meta_rev_at_epoch": 173,
        "meta_bstar": -0.0050289588,
        "meta_mean_motion_dot": -0.0111643,
        "meta_mean_motion_ddot": 0,
        "tle_line1": "1 66850U 25281C   25348.83340278 -.01116430  00000+0 -50290-2 0  9995",
        "tle_line2": "2 66850  43.0004 109.4330 0001636 273.5725 347.4123 15.85783131  1732"
      },
      "geometry": {
        "type": "Point",
        "coordinates": [
          67.34956024246803,
          -29.27367625273964
        ]
      }
    },
    {
      "type": "Feature",
      "properties": {
        "norad_id": 66851,
        "name": "STARLINK-36094",
        "group": "last-30-days",
        "lat": -27.933788660624913,
        "lon": 69.64456946209661,
        "alt_km": 321.1476032862138,
        "timestamp": "2025-12-15T15:53:18.662621+00:00",
        "meta_object_name": "STARLINK-36094",
        "meta_object_id": "2025-281D",
        "meta_epoch": "2025-12-14T20:00:06.000192",
        "meta_mean_motion": 15.85791364,
        "meta_eccentricity": 0.00014928,
        "meta_inclination": 43.0003,
        "meta_ra_of_asc_node": 109.4268,
        "meta_arg_of_pericenter": 281.5433,
        "meta_mean_anomaly": 341.8959,
        "meta_ephemeris_type": 0,
        "meta_classification_type": "U",
        "meta_norad_cat_id": 66851,
        "meta_element_set_no": 999,
        "meta_rev_at_epoch": 173,
        "meta_bstar": -0.0051105367,
        "meta_mean_motion_dot": -0.01153674,
        "meta_mean_motion_ddot": 0,
        "tle_line1": "1 66851U 25281D   25348.83340278 -.01153674  00000+0 -51105-2 0  9993",
        "tle_line2": "2 66851  43.0003 109.4268 0001492 281.5433 341.8959 15.85791364  1739"
      },
      "geometry": {
        "type": "Point",
        "coordinates": [
          69.64456946209661,
          -27.933788660624913
        ]
      }
    },
    {
      "type": "Feature",
      "properties": {
        "norad_id": 66852,
        "name": "STARLINK-35992",
        "group": "last-30-days",
        "lat": -26.577700310064657,
        "lon": 71.84975902078016,
        "alt_km": 321.00027665032485,
        "timestamp": "2025-12-15T15:53:18.662630+00:00",
        "meta_object_name": "STARLINK-35992",
        "meta_object_id": "2025-281E",
        "meta_epoch": "2025-12-14T20:00:06.000192",
        "meta_mean_motion": 15.85788879,
        "meta_eccentricity": 0.00016618,
        "meta_inclination": 43.0006,
        "meta_ra_of_asc_node": 109.421,
        "meta_arg_of_pericenter": 278.9468,
        "meta_mean_anomaly": 346.8724,
        "meta_ephemeris_type": 0,
        "meta_classification_type": "U",
        "meta_norad_cat_id": 66852,
        "meta_element_set_no": 999,
        "meta_rev_at_epoch": 173,
        "meta_bstar": -0.0050859051,
        "meta_mean_motion_dot": -0.01148656,
        "meta_mean_motion_ddot": 0,
        "tle_line1": "1 66852U 25281E   25348.83340278 -.01148656  00000+0 -50859-2 0  9993",
        "tle_line2": "2 66852  43.0006 109.4210 0001661 278.9468 346.8724 15.85788879  1738"
      },
      "geometry": {
        "type": "Point",
        "coordinates": [
          71.84975902078016,
          -26.577700310064657
        ]
      }
    },
    {
      "type": "Feature",
      "properties": {
        "norad_id": 66853,
        "name": "STARLINK-35986",
        "group": "last-30-days",
        "lat": -24.735758465642025,
        "lon": 74.68212899981499,
        "alt_km": 321.0104179956661,
        "timestamp": "2025-12-15T15:53:18.662639+00:00",
        "meta_object_name": "STARLINK-35986",
        "meta_object_id": "2025-281F",
        "meta_epoch": "2025-12-14T20:00:06.000192",
        "meta_mean_motion": 15.85768428,
        "meta_eccentricity": 0.00016965,
        "meta_inclination": 43.0007,
        "meta_ra_of_asc_node": 109.4127,
        "meta_arg_of_pericenter": 279.1814,
        "meta_mean_anomaly": 349.8933,
        "meta_ephemeris_type": 0,
        "meta_classification_type": "U",
        "meta_norad_cat_id": 66853,
        "meta_element_set_no": 999,
        "meta_rev_at_epoch": 173,
        "meta_bstar": -0.0051572164,
        "meta_mean_motion_dot": -0.01162043,
        "meta_mean_motion_ddot": 0,
        "tle_line1": "1 66853U 25281F   25348.83340278 -.01162043  00000+0 -51572-2 0  9993",
        "tle_line2": "2 66853  43.0007 109.4127 0001696 279.1814 349.8933 15.85768428  1736"
      },
      "geometry": {
        "type": "Point",
        "coordinates": [
          74.68212899981499,
          -24.735758465642025
        ]
      }
    }
  ]
}